[{"OBJECT_NAME":"STARLINK-37471","OBJECT_ID":"2026-089A","EPOCH":"2026-05-22T01:45:21.468960","MEAN_MOTION":15.7531607,"ECCENTRICITY":0.00010413,"INCLINATION":97.288,"RA_OF_ASC_NODE":348.5471,"ARG_OF_PERICENTER":167.868,"MEAN_ANOMALY":192.261,"EPHEMERIS_TYPE":0,"CLASSIFICATION_TYPE":"U","NORAD_CAT_ID":68802,"ELEMENT_SET_NO":999,"REV_AT_EPOCH":458,"BSTAR":0.0012504824,"MEAN_MOTION_DOT":0.00191675,"MEAN_MOTION_DDOT":0},{"OBJECT_NAME":"STARLINK-37460","OBJECT_ID":"2026-089B","EPOCH":"2026-05-22T03:15:49.689792","MEAN_MOTION":15.75183622,"ECCENTRICITY":0.00017962,"INCLINATION":97.2866,"RA_OF_ASC_NODE":348.6156,"ARG_OF_PERICENTER":72.117,"MEAN_ANOMALY":288.0291,"EPHEMERIS_TYPE":0,"CLASSIFICATION_TYPE":"U","NORAD_CAT_ID":68803,"ELEMENT_SET_NO":999,"REV_AT_EPOCH":459,"BSTAR":0.0012638135,"MEAN_MOTION_DOT":0.00192639,"MEAN_MOTION_DDOT":0},{"OBJECT_NAME":"STARLINK-37473","OBJECT_ID":"2026-089C","EPOCH":"2026-05-22T03:13:47.482176","MEAN_MOTION":15.75181266,"ECCENTRICITY":0.00010541,"INCLINATION":97.2868,"RA_OF_ASC_NODE":348.6194,"ARG_OF_PERICENTER":93.0296,"MEAN_ANOMALY":267.1089,"EPHEMERIS_TYPE":0,"CLASSIFICATION_TYPE":"U","NORAD_CAT_ID":68804,"ELEMENT_SET_NO":999,"REV_AT_EPOCH":459,"BSTAR":0.0011561259,"MEAN_MOTION_DOT":0.00175843,"MEAN_MOTION_DDOT":0},{"OBJECT_NAME":"STARLINK-36832","OBJECT_ID":"2026-089D","EPOCH":"2026-05-22T03:11:45.399840","MEAN_MOTION":15.75188798,"ECCENTRICITY":0.00015868,"INCLINATION":97.2854,"RA_OF_ASC_NODE":348.6201,"ARG_OF_PERICENTER":49.6709,"MEAN_ANOMALY":310.4694,"EPHEMERIS_TYPE":0,"CLASSIFICATION_TYPE":"U","NORAD_CAT_ID":68805,"ELEMENT_SET_NO":999,"REV_AT_EPOCH":459,"BSTAR":0.00074719889,"MEAN_MOTION_DOT":0.00112798,"MEAN_MOTION_DDOT":0},{"OBJECT_NAME":"STARLINK-37370","OBJECT_ID":"2026-089E","EPOCH":"2026-05-22T01:40:47.098848","MEAN_MOTION":15.75246228,"ECCENTRICITY":0.00013619,"INCLINATION":97.2835,"RA_OF_ASC_NODE":348.5582,"ARG_OF_PERICENTER":148.4064,"MEAN_ANOMALY":211.7283,"EPHEMERIS_TYPE":0,"CLASSIFICATION_TYPE":"U","NORAD_CAT_ID":68806,"ELEMENT_SET_NO":999,"REV_AT_EPOCH":458,"BSTAR":0.003290443,"MEAN_MOTION_DOT":0.00523256,"MEAN_MOTION_DDOT":0},{"OBJECT_NAME":"STARLINK-37366","OBJECT_ID":"2026-089F","EPOCH":"2026-05-22T03:11:15.420768","MEAN_MOTION":15.75182286,"ECCENTRICITY":0.00022174,"INCLINATION":97.2869,"RA_OF_ASC_NODE":348.6185,"ARG_OF_PERICENTER":63.4184,"MEAN_ANOMALY":296.7308,"EPHEMERIS_TYPE":0,"CLASSIFICATION_TYPE":"U","NORAD_CAT_ID":68807,"ELEMENT_SET_NO":999,"REV_AT_EPOCH":459,"BSTAR":0.0011059794,"MEAN_MOTION_DOT":0.00168072,"MEAN_MOTION_DDOT":0},{"OBJECT_NAME":"STARLINK-37446","OBJECT_ID":"2026-089G","EPOCH":"2026-05-22T03:09:13.364352","MEAN_MOTION":15.7517488,"ECCENTRICITY":0.00017894,"INCLINATION":97.2866,"RA_OF_ASC_NODE":348.6226,"ARG_OF_PERICENTER":70.5146,"MEAN_ANOMALY":289.6313,"EPHEMERIS_TYPE":0,"CLASSIFICATION_TYPE":"U","NORAD_CAT_ID":68808,"ELEMENT_SET_NO":999,"REV_AT_EPOCH":459,"BSTAR":0.0010142031,"MEAN_MOTION_DOT":0.00153802,"MEAN_MOTION_DDOT":0},{"OBJECT_NAME":"STARLINK-37405","OBJECT_ID":"2026-089H","EPOCH":"2026-05-22T03:07:11.652672","MEAN_MOTION":15.75178884,"ECCENTRICITY":0.00024709,"INCLINATION":97.2856,"RA_OF_ASC_NODE":348.6255,"ARG_OF_PERICENTER":60.9063,"MEAN_ANOMALY":299.245,"EPHEMERIS_TYPE":0,"CLASSIFICATION_TYPE":"U","NORAD_CAT_ID":68809,"ELEMENT_SET_NO":999,"REV_AT_EPOCH":459,"BSTAR":0.0010092299,"MEAN_MOTION_DOT":0.00153069,"MEAN_MOTION_DDOT":0},{"OBJECT_NAME":"STARLINK-37447","OBJECT_ID":"2026-089J","EPOCH":"2026-05-22T03:05:39.870816","MEAN_MOTION":15.75186111,"ECCENTRICITY":0.00016438,"INCLINATION":97.2851,"RA_OF_ASC_NODE":348.6275,"ARG_OF_PERICENTER":66.6599,"MEAN_ANOMALY":293.4839,"EPHEMERIS_TYPE":0,"CLASSIFICATION_TYPE":"U","NORAD_CAT_ID":68810,"ELEMENT_SET_NO":999,"REV_AT_EPOCH":459,"BSTAR":0.0013123794,"MEAN_MOTION_DOT":0.00200246,"MEAN_MOTION_DDOT":0},{"OBJECT_NAME":"STARLINK-37442","OBJECT_ID":"2026-089K","EPOCH":"2026-05-22T03:03:08.080704","MEAN_MOTION":15.75178342,"ECCENTRICITY":0.00036845,"INCLINATION":97.2871,"RA_OF_ASC_NODE":348.6282,"ARG_OF_PERICENTER":53.0131,"MEAN_ANOMALY":307.1471,"EPHEMERIS_TYPE":0,"CLASSIFICATION_TYPE":"U","NORAD_CAT_ID":68811,"ELEMENT_SET_NO":999,"REV_AT_EPOCH":459,"BSTAR":0.0010011146,"MEAN_MOTION_DOT":0.00151838,"MEAN_MOTION_DDOT":0},{"OBJECT_NAME":"STARLINK-37431","OBJECT_ID":"2026-089L","EPOCH":"2026-05-22T03:04:38.854272","MEAN_MOTION":15.7523422,"ECCENTRICITY":0.00016435,"INCLINATION":97.286,"RA_OF_ASC_NODE":348.629,"ARG_OF_PERICENTER":88.455,"MEAN_ANOMALY":271.6904,"EPHEMERIS_TYPE":0,"CLASSIFICATION_TYPE":"U","NORAD_CAT_ID":68812,"ELEMENT_SET_NO":999,"REV_AT_EPOCH":459,"BSTAR":0.001013549,"MEAN_MOTION_DOT":0.00154102,"MEAN_MOTION_DDOT":0},{"OBJECT_NAME":"STARLINK-37426","OBJECT_ID":"2026-089M","EPOCH":"2026-05-22T03:02:06.455904","MEAN_MOTION":15.75185533,"ECCENTRICITY":0.00017444,"INCLINATION":97.2848,"RA_OF_ASC_NODE":348.6317,"ARG_OF_PERICENTER":86.4179,"MEAN_ANOMALY":273.7285,"EPHEMERIS_TYPE":0,"CLASSIFICATION_TYPE":"U","NORAD_CAT_ID":68813,"ELEMENT_SET_NO":999,"REV_AT_EPOCH":459,"BSTAR":0.0012424195,"MEAN_MOTION_DOT":0.00189316,"MEAN_MOTION_DDOT":0},{"OBJECT_NAME":"STARLINK-37459","OBJECT_ID":"2026-089N","EPOCH":"2026-05-22T01:30:07.205760","MEAN_MOTION":15.75227342,"ECCENTRICITY":0.00015751,"INCLINATION":97.2859,"RA_OF_ASC_NODE":348.5655,"ARG_OF_PERICENTER":84.2957,"MEAN_ANOMALY":275.8488,"EPHEMERIS_TYPE":0,"CLASSIFICATION_TYPE":"U","NORAD_CAT_ID":68814,"ELEMENT_SET_NO":999,"REV_AT_EPOCH":458,"BSTAR":0.0012797991,"MEAN_MOTION_DOT":0.00195511,"MEAN_MOTION_DDOT":0},{"OBJECT_NAME":"STARLINK-37425","OBJECT_ID":"2026-089P","EPOCH":"2026-05-22T02:59:04.351488","MEAN_MOTION":15.75173743,"ECCENTRICITY":0.00044717,"INCLINATION":97.2859,"RA_OF_ASC_NODE":348.6342,"ARG_OF_PERICENTER":48.3891,"MEAN_ANOMALY":311.7756,"EPHEMERIS_TYPE":0,"CLASSIFICATION_TYPE":"U","NORAD_CAT_ID":68815,"ELEMENT_SET_NO":999,"REV_AT_EPOCH":459,"BSTAR":0.001334914,"MEAN_MOTION_DOT":0.00203734,"MEAN_MOTION_DDOT":0},{"OBJECT_NAME":"STARLINK-37315","OBJECT_ID":"2026-089Q","EPOCH":"2026-05-22T03:00:35.026560","MEAN_MOTION":15.75190319,"ECCENTRICITY":0.00019711,"INCLINATION":97.2836,"RA_OF_ASC_NODE":348.6327,"ARG_OF_PERICENTER":90.8299,"MEAN_ANOMALY":269.3192,"EPHEMERIS_TYPE":0,"CLASSIFICATION_TYPE":"U","NORAD_CAT_ID":68816,"ELEMENT_SET_NO":999,"REV_AT_EPOCH":459,"BSTAR":0.0010133461,"MEAN_MOTION_DOT":0.00153776,"MEAN_MOTION_DDOT":0},{"OBJECT_NAME":"STARLINK-37444","OBJECT_ID":"2026-089R","EPOCH":"2026-05-22T02:57:32.141952","MEAN_MOTION":15.75184585,"ECCENTRICITY":0.00019244,"INCLINATION":97.2842,"RA_OF_ASC_NODE":348.6355,"ARG_OF_PERICENTER":66.2283,"MEAN_ANOMALY":293.9184,"EPHEMERIS_TYPE":0,"CLASSIFICATION_TYPE":"U","NORAD_CAT_ID":68817,"ELEMENT_SET_NO":999,"REV_AT_EPOCH":459,"BSTAR":0.0011149784,"MEAN_MOTION_DOT":0.00169482,"MEAN_MOTION_DDOT":0}]