STARLINK-37471          
1 68802U 26089A   26142.07316515  .00191675  00000+0  12505-2 0  9995
2 68802  97.2880 348.5471 0001041 167.8680 192.2610 15.75316070  4587
STARLINK-37460          
1 68803U 26089B   26142.13599178  .00192639  00000+0  12638-2 0  9999
2 68803  97.2866 348.6156 0001796  72.1170 288.0291 15.75183622  4597
STARLINK-37473          
1 68804U 26089C   26142.13457734  .00175843  00000+0  11561-2 0  9993
2 68804  97.2868 348.6194 0001054  93.0296 267.1089 15.75181266  4595
STARLINK-36832          
1 68805U 26089D   26142.13316435  .00112798  00000+0  74720-3 0  9993
2 68805  97.2854 348.6201 0001586  49.6709 310.4694 15.75188798  4597
STARLINK-37370          
1 68806U 26089E   26142.06998957  .00523256  00000+0  32904-2 0  9993
2 68806  97.2835 348.5582 0001361 148.4064 211.7283 15.75246228  4580
STARLINK-37366          
1 68807U 26089F   26142.13281737  .00168072  00000+0  11060-2 0  9994
2 68807  97.2869 348.6185 0002217  63.4184 296.7308 15.75182286  4593
STARLINK-37446          
1 68808U 26089G   26142.13140468  .00153802  00000+0  10142-2 0  9995
2 68808  97.2866 348.6226 0001789  70.5146 289.6313 15.75174880  4595
STARLINK-37405          
1 68809U 26089H   26142.12999598  .00153069  00000+0  10092-2 0  9990
2 68809  97.2856 348.6255 0002470  60.9063 299.2450 15.75178884  4593
STARLINK-37447          
1 68810U 26089J   26142.12893369  .00200246  00000+0  13124-2 0  9990
2 68810  97.2851 348.6275 0001643  66.6599 293.4839 15.75186111  4599
STARLINK-37442          
1 68811U 26089K   26142.12717686  .00151838  00000+0  10011-2 0  9992
2 68811  97.2871 348.6282 0003684  53.0131 307.1471 15.75178342  4591
STARLINK-37431          
1 68812U 26089L   26142.12822748  .00154102  00000+0  10135-2 0  9993
2 68812  97.2860 348.6290 0001643  88.4550 271.6904 15.75234220  4593
STARLINK-37426          
1 68813U 26089M   26142.12646361  .00189316  00000+0  12424-2 0  9997
2 68813  97.2848 348.6317 0001744  86.4179 273.7285 15.75185533  4594
STARLINK-37459          
1 68814U 26089N   26142.06258340  .00195511  00000+0  12798-2 0  9995
2 68814  97.2859 348.5655 0001575  84.2957 275.8488 15.75227342  4585
STARLINK-37425          
1 68815U 26089P   26142.12435592  .00203734  00000+0  13349-2 0  9999
2 68815  97.2859 348.6342 0004471  48.3891 311.7756 15.75173743  4590
STARLINK-37315          
1 68816U 26089Q   26142.12540540  .00153776  00000+0  10133-2 0  9998
2 68816  97.2836 348.6327 0001971  90.8299 269.3192 15.75190319  4595
STARLINK-37444          
1 68817U 26089R   26142.12328868  .00169482  00000+0  11150-2 0  9997
2 68817  97.2842 348.6355 0001924  66.2283 293.9184 15.75184585  4594
